OBJECT_NAME,OBJECT_ID,EPOCH,MEAN_MOTION,ECCENTRICITY,INCLINATION,RA_OF_ASC_NODE,ARG_OF_PERICENTER,MEAN_ANOMALY,EPHEMERIS_TYPE,CLASSIFICATION_TYPE,NORAD_CAT_ID,ELEMENT_SET_NO,REV_AT_EPOCH,BSTAR,MEAN_MOTION_DOT,MEAN_MOTION_DDOT
LEMUR-2-ROUNDTRIPPER,2025-009DG,2026-07-18T03:54:33.494688,15.04258268,.00044927,97.7246,281.8056,58.5266,301.6399,0,U,62711,999,8228,.30270773E-3,.415E-4,0
LEMUR-2-MYNAMEISJEFF,2025-009DH,2026-07-18T03:52:24.378528,15.04249078,.0004306,97.7294,282.2039,91.2330,268.9389,0,U,62712,999,8228,.29950938E-3,.4104E-4,0
LEMUR-2-LEIA-PHILIP,2025-052AN,2026-07-18T03:26:58.716096,14.97392404,.00050536,97.6797,90.5694,113.1801,246.9954,0,U,63246,999,7330,.4812063E-5,-.2E-7,0
LEMUR-2-LIA-MARTIN,2025-052AQ,2026-07-17T03:14:31.836480,14.98037500,.00051892,97.6861,90.1001,85.6997,274.4819,0,U,63248,999,7316,.13774583E-3,.157E-4,0
LEMUR-2-DELOITTE-1,2025-052BB,2026-07-18T06:02:16.164672,14.97797028,.00025409,97.6885,91.5291,60.6586,299.4890,0,U,63259,999,7334,.21074842E-3,.2417E-4,0
LEMUR-2-EMERSONROSE,2025-052BD,2026-07-18T03:06:03.171168,14.99305968,.00025673,97.6882,92.0287,54.8265,305.3198,0,U,63261,999,7337,.19662007E-3,.2342E-4,0
LEMUR-2-MARACHE-FRAN,2025-052BE,2026-07-17T22:47:45.760416,15.00325136,.00055225,97.6823,92.2216,241.3686,118.6983,0,U,63262,999,7337,.13706438E-3,.166E-4,0
LEMUR-2-THEFALCONER,2025-052BG,2026-07-17T22:45:42.042528,14.97569358,.00004739,97.6821,90.8183,247.5974,112.5198,0,U,63264,999,7329,.95366085E-4,.1056E-4,0
LEMUR-2-UNTITLED-SC,2025-061A,2026-07-17T21:30:42.505056,15.13655854,.00194675,97.5659,174.0411,154.0615,206.1596,0,U,63351,999,7223,.99399022E-4,.1728E-4,0
LEMUR-2-ESPERANZA,2025-061B,2026-07-17T20:54:55.057248,15.13762207,.00190656,97.5666,174.1173,153.4067,206.8147,0,U,63352,999,7223,.10092637E-3,.176E-4,0
LEMUR-2-KREMPEL-BRO2,2025-061C,2026-07-17T21:21:09.117504,15.14188924,.00202054,97.5710,174.7078,146.3722,213.8796,0,U,63353,999,7225,.102687E-3,.1815E-4,0
LEMUR-2-THERMORAPTOR,2025-061D,2026-07-17T20:52:56.539776,15.14271810,.00199287,97.5717,174.7700,145.3232,214.9303,0,U,63354,999,7225,.10339683E-3,.1832E-4,0
LEMUR-2-NEUROSPICY,2025-061E,2026-07-17T21:43:53.304384,15.14390742,.00177437,97.5645,174.4075,148.0319,212.1993,0,U,63355,999,7226,.10329338E-3,.1835E-4,0
LEMUR-2-TILLINFINITY,2025-061F,2026-07-18T04:38:04.091424,15.14976823,.00192967,97.5630,175.0058,136.1599,224.1169,0,U,63356,999,7233,.98283797E-4,.1774E-4,0
LEMUR-2-KREMPEL-BRO1,2025-061G,2026-07-18T04:05:34.311264,15.14782932,.00199209,97.5632,174.8906,137.5923,222.6852,0,U,63357,999,7232,.10246945E-3,.1842E-4,0
LEMUR-2-LANGER2SPACE,2025-061H,2026-07-18T04:52:41.974176,15.14476819,.00176555,97.5636,174.7248,145.4029,214.8355,0,U,63358,999,7231,.10483337E-3,.1868E-4,0
LEMUR-2-BALTO,2025-052BH,2026-07-16T22:24:34.244352,15.00373082,.00050442,97.6925,91.2085,320.2373,39.8480,0,U,63395,999,7322,.1988074E-3,.2437E-4,0
LEMUR-2-KRISH,2025-135AK,2026-07-18T02:27:35.592192,14.96459459,.00011306,97.7768,313.7742,101.0132,259.1216,0,U,64561,999,5854,.17469818E-3,.1924E-4,0
LEMUR-2-HUBBLE-4,2025-135AP,2026-07-18T06:57:10.490400,14.93690492,.00028994,97.7722,312.8365,154.5978,205.5384,0,U,64565,999,5851,.49345132E-4,.465E-5,0
LEMUR-2-SEJONG-2,2025-135BL,2026-07-18T04:32:50.775648,14.96925635,.00041537,97.7709,314.0060,204.4160,155.6865,0,U,64586,999,5858,.20858251E-3,.2337E-4,0
LEMUR-2-HUBBLE-5,2025-135BT,2026-07-18T00:42:36.072288,14.94217355,.00045071,97.7742,313.2515,223.8608,136.2255,0,U,64840,999,5851,.40306253E-4,.375E-5,0
LEMUR-2-KARENDARRELL,2025-135BU,2026-07-17T20:43:59.094624,15.00521478,.00126903,97.7722,315.0336,96.6097,263.6572,0,U,64841,999,5861,.3246888E-3,.4039E-4,0
LEMUR-2-LUCILLE-ROSE,2025-135BV,2026-07-18T00:53:52.516896,15.00508221,.00152192,97.7706,315.2421,180.5819,179.5389,0,U,65403,999,5326,.27538625E-3,.3417E-4,0
LEMUR-2-AFFIE-WAUWIE,2025-248C,2026-07-18T07:27:31.722048,15.28338780,.00091655,45.3920,306.2107,269.5503,90.4336,0,U,66295,999,3935,.45936026E-3,.12645E-3,0
OTTER SDM,2025-276N,2026-07-18T04:35:27.551040,15.20076153,.00044702,97.4198,272.1578,240.2344,119.8447,0,U,66678,999,3512,.13688316E-3,.2887E-4,0
LEMUR-2-STAS-GORBUK,2025-276W,2026-07-18T03:32:38.213664,15.19675181,.00037715,97.4233,272.1663,233.5789,126.5098,0,U,66686,999,3511,.13433395E-3,.2798E-4,0
LEMUR-2-TEODOR,2025-276DG,2026-07-18T03:54:59.191776,15.21355081,.00021882,97.4137,272.4569,85.3117,274.8369,0,U,66768,999,3515,.13300346E-3,.2911E-4,0
LEMUR-2-LAILA,2025-276DQ,2026-07-18T03:10:51.942432,15.21581149,.00028719,97.4160,272.5673,90.0248,270.1317,0,U,66776,999,3515,.1322501E-3,.2913E-4,0
LEMUR-2-CELIJO-SB-PK,2025-276DW,2026-07-18T04:28:05.217600,15.00302816,.00068255,97.5186,268.9404,57.0953,303.0927,0,U,66781,999,2727,.23647274E-3,.2908E-4,0
